{
  "norad_id": 68279,
  "name": "STARLINK-36934",
  "history": [
    {
      "epoch": "2026-03-28T20:00:01.999872",
      "apogee_km": 283.95206104009594,
      "perigee_km": 282.6111174780781,
      "latitude_deg": -23.037846276840746,
      "longitude_deg": 7.902222079923376,
      "semi_major_axis_km": 6661.418589259087,
      "eccentricity": 0.00010065,
      "inclination_deg": 53.1576,
      "raan_deg": 241.5757,
      "arg_perigee_deg": 50.6062,
      "mean_anomaly_deg": 45.0871,
      "mean_motion_rev_day": 15.96807909
    },
    {
      "epoch": "2026-03-29T04:00:01.999584",
      "apogee_km": 285.9542213723071,
      "perigee_km": 284.749462589677,
      "latitude_deg": 25.55969613238836,
      "longitude_deg": 39.90222175978124,
      "semi_major_axis_km": 6663.488841980992,
      "eccentricity": 9.04e-05,
      "inclination_deg": 53.1572,
      "raan_deg": 239.8646,
      "arg_perigee_deg": 68.3534,
      "mean_anomaly_deg": 144.1963,
      "mean_motion_rev_day": 15.96063808
    }
  ]
}